{"type": "FeatureCollection", "features": [ {"type": "Feature", "properties": {"norad_id": 45358, "name": "COSMOS 2545 (760)", "group": "glo-ops", "lat": 22.09003202008364, "lon": -30.34827906836938, "alt_km": 19147.34306981041, "timestamp": "2025-12-26T13:39:19.236749+00:00", "meta": {"OBJECT_NAME": "COSMOS 2545 (760)", "OBJECT_ID": "2020-018A", "EPOCH": "2025-12-26T01:37:18.289920", "MEAN_MOTION": 2.13102654, "ECCENTRICITY": 0.00112779, "INCLINATION": 64.4616, "RA_OF_ASC_NODE": 318.5028, "ARG_OF_PERICENTER": 250.7597, "MEAN_ANOMALY": 109.1229, "EPHEMERIS_TYPE": 0, "CLASSIFICATION_TYPE": "U", "NORAD_CAT_ID": 45358, "ELEMENT_SET_NO": 999, "REV_AT_EPOCH": 4497, "BSTAR": 0, "MEAN_MOTION_DOT": -3.5e-07, "MEAN_MOTION_DDOT": 0}, "tle": {"line1": "1 45358U 20018A   25360.06757280 -.00000035  00000+0  00000+0 0  9994", "line2": "2 45358  64.4616 318.5028 0011277 250.7597 109.1229  2.13102654 44976"}}, "geometry": {"type": "Point", "coordinates": [-30.34827906836938, 22.09003202008364]}}, {"type": "Feature", "properties": {"norad_id": 46805, "name": "COSMOS 2547 (705K)", "group": "glo-ops", "lat": -51.67710891978046, "lon": 55.21208878291967, "alt_km": 19120.703817396537, "timestamp": "2025-12-26T13:39:19.236761+00:00", "meta": {"OBJECT_NAME": "COSMOS 2547 (705K)", "OBJECT_ID": "2020-075A", "EPOCH": "2025-12-24T20:21:03.584160", "MEAN_MOTION": 2.13100193, "ECCENTRICITY": 0.00061113, "INCLINATION": 64.5968, "RA_OF_ASC_NODE": 198.292, "ARG_OF_PERICENTER": 227.5617, "MEAN_ANOMALY": 132.4433, "EPHEMERIS_TYPE": 0, "CLASSIFICATION_TYPE": "U", "NORAD_CAT_ID": 46805, "ELEMENT_SET_NO": 999, "REV_AT_EPOCH": 4019, "BSTAR": 0, "MEAN_MOTION_DOT": 1.02e-06, "MEAN_MOTION_DDOT": 0}, "tle": {"line1": "1 46805U 20075A   25358.84795815  .00000102  00000+0  00000+0 0  9998", "line2": "2 46805  64.5968 198.2920 0006111 227.5617 132.4433  2.13100193 40197"}}, "geometry": {"type": "Point", "coordinates": [55.21208878291967, -51.67710891978046]}}, {"type": "Feature", "properties": {"norad_id": 52984, "name": "COSMOS 2557 (706K)", "group": "glo-ops", "lat": 55.865702870491994, "lon": 95.58930490521648, "alt_km": 19157.058624932735, "timestamp": "2025-12-26T13:39:19.236772+00:00", "meta": {"OBJECT_NAME": "COSMOS 2557 (706K)", "OBJECT_ID": "2022-075A", "EPOCH": "2025-12-25T22:50:27.414816", "MEAN_MOTION": 2.13102015, "ECCENTRICITY": 0.00135372, "INCLINATION": 64.4024, "RA_OF_ASC_NODE": 320.5875, "ARG_OF_PERICENTER": 278.4992, "MEAN_ANOMALY": 81.3515, "EPHEMERIS_TYPE": 0, "CLASSIFICATION_TYPE": "U", "NORAD_CAT_ID": 52984, "ELEMENT_SET_NO": 999, "REV_AT_EPOCH": 2702, "BSTAR": 0, "MEAN_MOTION_DOT": -3.5e-07, "MEAN_MOTION_DDOT": 0}, "tle": {"line1": "1 52984U 22075A   25359.95170619 -.00000035  00000+0  00000+0 0  9993", "line2": "2 52984  64.4024 320.5875 0013537 278.4992  81.3515  2.13102015 27029"}}, "geometry": {"type": "Point", "coordinates": [95.58930490521648, 55.865702870491994]}}, {"type": "Feature", "properties": {"norad_id": 54031, "name": "COSMOS 2559 (707K)", "group": "glo-ops", "lat": -59.23326722076983, "lon": -165.68305495517083, "alt_km": 19121.947529692134, "timestamp": "2025-12-26T13:39:19.236785+00:00", "meta": {"OBJECT_NAME": "COSMOS 2559 (707K)", "OBJECT_ID": "2022-130A", "EPOCH": "2025-12-25T07:14:23.309088", "MEAN_MOTION": 2.13101233, "ECCENTRICITY": 0.0011493, "INCLINATION": 64.3751, "RA_OF_ASC_NODE": 320.6993, "ARG_OF_PERICENTER": 191.6749, "MEAN_ANOMALY": 168.3019, "EPHEMERIS_TYPE": 0, "CLASSIFICATION_TYPE": "U", "NORAD_CAT_ID": 54031, "ELEMENT_SET_NO": 999, "REV_AT_EPOCH": 2498, "BSTAR": 0, "MEAN_MOTION_DOT": -3.5e-07, "MEAN_MOTION_DDOT": 0}, "tle": {"line1": "1 54031U 22130A   25359.30165867 -.00000035  00000+0  00000+0 0  9998", "line2": "2 54031  64.3751 320.6993 0011493 191.6749 168.3019  2.13101233 24985"}}, "geometry": {"type": "Point", "coordinates": [-165.68305495517083, -59.23326722076983]}}, {"type": "Feature", "properties": {"norad_id": 54377, "name": "COSMOS 2564 (761)", "group": "glo-ops", "lat": 10.669070816391855, "lon": -156.45159595087145, "alt_km": 19150.369866890265, "timestamp": "2025-12-26T13:39:19.236797+00:00", "meta": {"OBJECT_NAME": "COSMOS 2564 (761)", "OBJECT_ID": "2022-161A", "EPOCH": "2025-12-25T03:29:54.558240", "MEAN_MOTION": 2.13102011, "ECCENTRICITY": 0.0008544, "INCLINATION": 64.739, "RA_OF_ASC_NODE": 198.4867, "ARG_OF_PERICENTER": 203.5994, "MEAN_ANOMALY": 156.4178, "EPHEMERIS_TYPE": 0, "CLASSIFICATION_TYPE": "U", "NORAD_CAT_ID": 54377, "ELEMENT_SET_NO": 999, "REV_AT_EPOCH": 2392, "BSTAR": 0, "MEAN_MOTION_DOT": 1.03e-06, "MEAN_MOTION_DDOT": 0}, "tle": {"line1": "1 54377U 22161A   25359.14577035  .00000103  00000+0  00000+0 0  9996", "line2": "2 54377  64.7390 198.4867 0008544 203.5994 156.4178  2.13102011 23922"}}, "geometry": {"type": "Point", "coordinates": [-156.45159595087145, 10.669070816391855]}}, {"type": "Feature", "properties": {"norad_id": 57517, "name": "COSMOS 2569 (703K)", "group": "glo-ops", "lat": 1.4574212532038895, "lon": 79.13064549730825, "alt_km": 19122.55682304175, "timestamp": "2025-12-26T13:39:19.236809+00:00", "meta": {"OBJECT_NAME": "COSMOS 2569 (703K)", "OBJECT_ID": "2023-114A", "EPOCH": "2025-12-26T02:20:34.905408", "MEAN_MOTION": 2.13103952, "ECCENTRICITY": 0.00110098, "INCLINATION": 65.2009, "RA_OF_ASC_NODE": 78.4621, "ARG_OF_PERICENTER": 287.2132, "MEAN_ANOMALY": 72.7147, "EPHEMERIS_TYPE": 0, "CLASSIFICATION_TYPE": "U", "NORAD_CAT_ID": 57517, "ELEMENT_SET_NO": 999, "REV_AT_EPOCH": 1857, "BSTAR": 0, "MEAN_MOTION_DOT": -5e-08, "MEAN_MOTION_DDOT": 0}, "tle": {"line1": "1 57517U 23114A   25360.09762622 -.00000005  00000+0  00000+0 0  9990", "line2": "2 57517  65.2009  78.4621 0011009 287.2132  72.7147  2.13103952 18578"}}, "geometry": {"type": "Point", "coordinates": [79.13064549730825, 1.4574212532038895]}}, {"type": "Feature", "properties": {"norad_id": 63130, "name": "COSMOS 2584 (704K)", "group": "glo-ops", "lat": 64.95647305989648, "lon": 165.06882246030835, "alt_km": 19136.200207037877, "timestamp": "2025-12-26T13:39:19.236825+00:00", "meta": {"OBJECT_NAME": "COSMOS 2584 (704K)", "OBJECT_ID": "2025-042A", "EPOCH": "2025-12-24T02:34:25.549824", "MEAN_MOTION": 2.13102981, "ECCENTRICITY": 0.00077651, "INCLINATION": 64.9819, "RA_OF_ASC_NODE": 78.7588, "ARG_OF_PERICENTER": 220.6893, "MEAN_ANOMALY": 139.3012, "EPHEMERIS_TYPE": 0, "CLASSIFICATION_TYPE": "U", "NORAD_CAT_ID": 63130, "ELEMENT_SET_NO": 999, "REV_AT_EPOCH": 631, "BSTAR": 0, "MEAN_MOTION_DOT": 1e-08, "MEAN_MOTION_DDOT": 0}, "tle": {"line1": "1 63130U 25042A   25358.10724016  .00000001  00000+0  00000+0 0  9999", "line2": "2 63130  64.9819  78.7588 0007765 220.6893 139.3012  2.13102981  6316"}}, "geometry": {"type": "Point", "coordinates": [165.06882246030835, 64.95647305989648]}}, {"type": "Feature", "properties": {"norad_id": 65590, "name": "COSMOS 2596 (708K)", "group": "glo-ops", "lat": -24.05510443930963, "lon": 153.14132260519074, "alt_km": 19140.18021046228, "timestamp": "2025-12-26T13:39:19.236838+00:00", "meta": {"OBJECT_NAME": "COSMOS 2596 (708K)", "OBJECT_ID": "2025-206B", "EPOCH": "2025-12-24T10:04:00.075648", "MEAN_MOTION": 2.13100293, "ECCENTRICITY": 0.00140917, "INCLINATION": 64.738, "RA_OF_ASC_NODE": 321.0695, "ARG_OF_PERICENTER": 307.5813, "MEAN_ANOMALY": 50.2886, "EPHEMERIS_TYPE": 0, "CLASSIFICATION_TYPE": "U", "NORAD_CAT_ID": 65590, "ELEMENT_SET_NO": 999, "REV_AT_EPOCH": 218, "BSTAR": 0, "MEAN_MOTION_DOT": -3.5e-07, "MEAN_MOTION_DDOT": 0}, "tle": {"line1": "1 65590U 25206B   25358.41944532 -.00000035  00000+0  00000+0 0  9992", "line2": "2 65590  64.7380 321.0695 0014091 307.5813  50.2886  2.13100293  2184"}}, "geometry": {"type": "Point", "coordinates": [153.14132260519074, -24.05510443930963]}}]}